{
  "type": "FeatureCollection",
  "features": [
    {
      "type": "Feature",
      "properties": {
        "norad_id": 34738,
        "name": "COSMOS 2251 DEB",
        "group": "cosmos-2251-debris",
        "lat": 60.70574140531791,
        "lon": -168.5024921496512,
        "alt_km": 746.3986103681009,
        "timestamp": "2025-12-03T08:58:46.398003+00:00",
        "meta_object_name": "COSMOS 2251 DEB",
        "meta_object_id": "1993-036ZG",
        "meta_epoch": "2025-12-02T14:43:42.099744",
        "meta_mean_motion": 14.46263711,
        "meta_eccentricity": 0.00471125,
        "meta_inclination": 74.0141,
        "meta_ra_of_asc_node": 162.191,
        "meta_arg_of_pericenter": 310.3802,
        "meta_mean_anomaly": 116.5033,
        "meta_ephemeris_type": 0,
        "meta_classification_type": "U",
        "meta_norad_cat_id": 34738,
        "meta_element_set_no": 999,
        "meta_rev_at_epoch": 87712,
        "meta_bstar": 0.00036862603,
        "meta_mean_motion_dot": 1.31e-05,
        "meta_mean_motion_ddot": 0,
        "tle_line1": "1 34738U 93036ZG  25336.61368171  .00001310  00000+0  36863-3 0  9991",
        "tle_line2": "2 34738  74.0141 162.1910 0047112 310.3802 116.5033 14.46263711877125"
      },
      "geometry": {
        "type": "Point",
        "coordinates": [
          -168.5024921496512,
          60.70574140531791
        ]
      }
    },
    {
      "type": "Feature",
      "properties": {
        "norad_id": 34750,
        "name": "COSMOS 2251 DEB",
        "group": "cosmos-2251-debris",
        "lat": 70.18121242280849,
        "lon": -88.1905466533221,
        "alt_km": 685.9193746319543,
        "timestamp": "2025-12-03T08:58:46.398014+00:00",
        "meta_object_name": "COSMOS 2251 DEB",
        "meta_object_id": "1993-036ZU",
        "meta_epoch": "2025-12-03T02:47:09.710304",
        "meta_mean_motion": 14.61164731,
        "meta_eccentricity": 0.003931,
        "meta_inclination": 74.1086,
        "meta_ra_of_asc_node": 220.0699,
        "meta_arg_of_pericenter": 176.3918,
        "meta_mean_anomaly": 345.1874,
        "meta_ephemeris_type": 0,
        "meta_classification_type": "U",
        "meta_norad_cat_id": 34750,
        "meta_element_set_no": 999,
        "meta_rev_at_epoch": 88090,
        "meta_bstar": 0.0013742,
        "meta_mean_motion_dot": 6.816e-05,
        "meta_mean_motion_ddot": 0,
        "tle_line1": "1 34750U 93036ZU  25337.11608461  .00006816  00000+0  13742-2 0  9996",
        "tle_line2": "2 34750  74.1086 220.0699 0039310 176.3918 345.1874 14.61164731880907"
      },
      "geometry": {
        "type": "Point",
        "coordinates": [
          -88.1905466533221,
          70.18121242280849
        ]
      }
    },
    {
      "type": "Feature",
      "properties": {
        "norad_id": 34752,
        "name": "COSMOS 2251 DEB",
        "group": "cosmos-2251-debris",
        "lat": 1.5331686336212917,
        "lon": 20.101770502980802,
        "alt_km": 599.71117957549,
        "timestamp": "2025-12-03T08:58:46.398024+00:00",
        "meta_object_name": "COSMOS 2251 DEB",
        "meta_object_id": "1993-036ZW",
        "meta_epoch": "2025-12-02T20:09:47.467008",
        "meta_mean_motion": 14.99556229,
        "meta_eccentricity": 0.0048499,
        "meta_inclination": 74.0144,
        "meta_ra_of_asc_node": 20.7477,
        "meta_arg_of_pericenter": 152.5113,
        "meta_mean_anomaly": 207.8655,
        "meta_ephemeris_type": 0,
        "meta_classification_type": "U",
        "meta_norad_cat_id": 34752,
        "meta_element_set_no": 999,
        "meta_rev_at_epoch": 89701,
        "meta_bstar": 0.0011465,
        "meta_mean_motion_dot": 0.00014438,
        "meta_mean_motion_ddot": 0,
        "tle_line1": "1 34752U 93036ZW  25336.84013272  .00014438  00000+0  11465-2 0  9996",
        "tle_line2": "2 34752  74.0144  20.7477 0048499 152.5113 207.8655 14.99556229897012"
      },
      "geometry": {
        "type": "Point",
        "coordinates": [
          20.101770502980802,
          1.5331686336212917
        ]
      }
    },
    {
      "type": "Feature",
      "properties": {
        "norad_id": 34754,
        "name": "COSMOS 2251 DEB",
        "group": "cosmos-2251-debris",
        "lat": 6.518329328359894,
        "lon": 63.05057661061268,
        "alt_km": 779.1973797490882,
        "timestamp": "2025-12-03T08:58:46.398034+00:00",
        "meta_object_name": "COSMOS 2251 DEB",
        "meta_object_id": "1993-036ZY",
        "meta_epoch": "2025-12-02T22:45:27.891936",
        "meta_mean_motion": 14.40457308,
        "meta_eccentricity": 0.0029139,
        "meta_inclination": 74.0309,
        "meta_ra_of_asc_node": 245.713,
        "meta_arg_of_pericenter": 3.8672,
        "meta_mean_anomaly": 121.4601,
        "meta_ephemeris_type": 0,
        "meta_classification_type": "U",
        "meta_norad_cat_id": 34754,
        "meta_element_set_no": 999,
        "meta_rev_at_epoch": 87992,
        "meta_bstar": 0.00030046,
        "meta_mean_motion_dot": 9.33e-06,
        "meta_mean_motion_ddot": 0,
        "tle_line1": "1 34754U 93036ZY  25336.94823949  .00000933  00000+0  30046-3 0  9991",
        "tle_line2": "2 34754  74.0309 245.7130 0029139   3.8672 121.4601 14.40457308879926"
      },
      "geometry": {
        "type": "Point",
        "coordinates": [
          63.05057661061268,
          6.518329328359894
        ]
      }
    },
    {
      "type": "Feature",
      "properties": {
        "norad_id": 34755,
        "name": "COSMOS 2251 DEB",
        "group": "cosmos-2251-debris",
        "lat": 68.30850018803108,
        "lon": -8.461280155881127,
        "alt_km": 1149.9290602786477,
        "timestamp": "2025-12-03T08:58:46.398044+00:00",
        "meta_object_name": "COSMOS 2251 DEB",
        "meta_object_id": "1993-036ZZ",
        "meta_epoch": "2025-11-28T15:26:25.154880",
        "meta_mean_motion": 13.50483978,
        "meta_eccentricity": 0.04082229,
        "meta_inclination": 73.9254,
        "meta_ra_of_asc_node": 312.682,
        "meta_arg_of_pericenter": 334.9897,
        "meta_mean_anomaly": 144.2013,
        "meta_ephemeris_type": 0,
        "meta_classification_type": "U",
        "meta_norad_cat_id": 34755,
        "meta_element_set_no": 999,
        "meta_rev_at_epoch": 82333,
        "meta_bstar": 0.001766679,
        "meta_mean_motion_dot": 1.881e-05,
        "meta_mean_motion_ddot": 0,
        "tle_line1": "1 34755U 93036ZZ  25332.64334670  .00001881  00000+0  17667-2 0  9999",
        "tle_line2": "2 34755  73.9254 312.6820 0408222 334.9897 144.2013 13.50483978823331"
      },
      "geometry": {
        "type": "Point",
        "coordinates": [
          -8.461280155881127,
          68.30850018803108
        ]
      }
    },
    {
      "type": "Feature",
      "properties": {
        "norad_id": 34756,
        "name": "COSMOS 2251 DEB",
        "group": "cosmos-2251-debris",
        "lat": 40.64437030412433,
        "lon": -74.48637334166159,
        "alt_km": 1196.1722672107499,
        "timestamp": "2025-12-03T08:58:46.398054+00:00",
        "meta_object_name": "COSMOS 2251 DEB",
        "meta_object_id": "1993-036AAA",
        "meta_epoch": "2025-12-02T16:31:05.981088",
        "meta_mean_motion": 13.67210106,
        "meta_eccentricity": 0.0344553,
        "meta_inclination": 74.0021,
        "meta_ra_of_asc_node": 120.8981,
        "meta_arg_of_pericenter": 358.9057,
        "meta_mean_anomaly": 1.1264,
        "meta_ephemeris_type": 0,
        "meta_classification_type": "U",
        "meta_norad_cat_id": 34756,
        "meta_element_set_no": 999,
        "meta_rev_at_epoch": 83284,
        "meta_bstar": 0.0010551,
        "meta_mean_motion_dot": 1.312e-05,
        "meta_mean_motion_ddot": 0,
        "tle_line1": "1 34756U 93036AAA 25336.68826367  .00001312  00000+0  10551-2 0  9991",
        "tle_line2": "2 34756  74.0021 120.8981 0344553 358.9057   1.1264 13.67210106832847"
      },
      "geometry": {
        "type": "Point",
        "coordinates": [
          -74.48637334166159,
          40.64437030412433
        ]
      }
    },
    {
      "type": "Feature",
      "properties": {
        "norad_id": 34758,
        "name": "COSMOS 2251 DEB",
        "group": "cosmos-2251-debris",
        "lat": -19.67702289118561,
        "lon": 140.41633101272762,
        "alt_km": 1179.893232584669,
        "timestamp": "2025-12-03T08:58:46.398064+00:00",
        "meta_object_name": "COSMOS 2251 DEB",
        "meta_object_id": "1993-036AAC",
        "meta_epoch": "2025-12-02T23:11:46.563360",
        "meta_mean_motion": 13.58027856,
        "meta_eccentricity": 0.0380661,
        "meta_inclination": 74.1072,
        "meta_ra_of_asc_node": 315.2248,
        "meta_arg_of_pericenter": 81.3008,
        "meta_mean_anomaly": 283.1017,
        "meta_ephemeris_type": 0,
        "meta_classification_type": "U",
        "meta_norad_cat_id": 34758,
        "meta_element_set_no": 999,
        "meta_rev_at_epoch": 82777,
        "meta_bstar": 0.0012021,
        "meta_mean_motion_dot": 1.376e-05,
        "meta_mean_motion_ddot": 0,
        "tle_line1": "1 34758U 93036AAC 25336.96651115  .00001376  00000+0  12021-2 0  9995",
        "tle_line2": "2 34758  74.1072 315.2248 0380661  81.3008 283.1017 13.58027856827777"
      },
      "geometry": {
        "type": "Point",
        "coordinates": [
          140.41633101272762,
          -19.67702289118561
        ]
      }
    }
  ]
}